[{"OBJECT_NAME":"STARLINK-35839","OBJECT_ID":"2025-303G","EPOCH":"2026-03-09T01:21:46.920384","MEAN_MOTION":15.27606005,"ECCENTRICITY":0.00034148,"INCLINATION":43.0022,"RA_OF_ASC_NODE":314.7014,"ARG_OF_PERICENTER":257.7968,"MEAN_ANOMALY":102.2502,"EPHEMERIS_TYPE":0,"CLASSIFICATION_TYPE":"U","NORAD_CAT_ID":67169,"ELEMENT_SET_NO":999,"REV_AT_EPOCH":1263,"BSTAR":0.0010184918,"MEAN_MOTION_DOT":0.00027896,"MEAN_MOTION_DDOT":0},{"OBJECT_NAME":"PUCP-SAT 1","OBJECT_ID":"2013-066AC","EPOCH":"2026-03-09T22:02:13.763904","MEAN_MOTION":15.29426022,"ECCENTRICITY":0.00136836,"INCLINATION":97.5787,"RA_OF_ASC_NODE":61.0032,"ARG_OF_PERICENTER":300.1183,"MEAN_ANOMALY":59.87,"EPHEMERIS_TYPE":0,"CLASSIFICATION_TYPE":"U","NORAD_CAT_ID":39442,"ELEMENT_SET_NO":999,"REV_AT_EPOCH":66907,"BSTAR":0.00088755185,"MEAN_MOTION_DOT":0.00025373,"MEAN_MOTION_DDOT":0}]
